NORAD_CAT_ID,OBJECT_NAME,OBJECT_TYPE,EPOCH,MEAN_MOTION,ECCENTRICITY,INCLINATION,RA_OF_ASC_NODE,ARG_OF_PERICENTER,MEAN_ANOMALY,BSTAR,MEAN_MOTION_DOT,MEAN_MOTION_DDOT,TLE_LINE0,TLE_LINE1,TLE_LINE2,SEMIMAJOR_AXIS,PERIOD,APOGEE,PERIGEE,DECAYED
53742.0,STARLINK-4637,PAYLOAD,2024-07-22 23:33:14,15.08844416,0.0001146,53.2172,53.7995,91.8243,268.288,0.00011341,1.518e-05,0.0,0 STARLINK-4637,1 53742U 22107AU  24204.98141594  .00001518  00000-0  11341-3 0  9994,2 53742  53.2172  53.7995 0001146  91.8243 268.2880 15.08844416104033,6917.867,95.437,540.525,538.939,0.0
53742.0,STARLINK-4637,PAYLOAD,2024-07-23 07:30:09,15.08858703,0.0001162,53.2162,52.3148,98.4804,261.632,0.00029927,4.481e-05,0.0,0 STARLINK-4637,1 53742U 22107AU  24205.31260735  .00004481  00000-0  29927-3 0  9992,2 53742  53.2162  52.3148 0001162  98.4804 261.6320 15.08858703104086,6917.823,95.436,540.492,538.884,0.0
53742.0,STARLINK-4637,PAYLOAD,2024-07-24 13:42:30,15.08835342,9.72e-05,53.216,46.6661,77.7307,282.3794,-8.0959e-06,-4.17e-06,0.0,0 STARLINK-4637,1 53742U 22107AU  24206.57118357 -.00000417  00000-0 -80959-5 0  9994,2 53742  53.2160  46.6661 0000972  77.7307 282.3794 15.08835342105053,6917.895,95.438,540.432,539.087,0.0
53742.0,STARLINK-4637,PAYLOAD,2024-07-25 13:33:16,15.08842905,7.73e-05,53.2177,42.2034,97.4178,262.6902,0.00013862,1.919e-05,0.0,0 STARLINK-4637,1 53742U 22107AU  24207.56477881  .00001919  00000-0  13862-3 0  9997,2 53742  53.2177  42.2034 0000773  97.4178 262.6902 15.08842905104426,6917.872,95.437,540.271,539.202,0.0
53742.0,STARLINK-4637,PAYLOAD,2024-07-26 13:24:04,15.08847677,0.0001638,53.2155,37.7456,83.3117,276.8062,0.00020831,3.029e-05,0.0,0 STARLINK-4637,1 53742U 22107AU  24208.55838012  .00003029  00000-0  20831-3 0  9992,2 53742  53.2155  37.7456 0001638  83.3117 276.8062 15.08847677105355,6917.857,95.437,540.855,538.589,0.0
53742.0,STARLINK-4637,PAYLOAD,2024-07-26 19:45:36,15.08847669,0.000138,53.2178,36.5557,86.0937,274.0213,0.0001641,2.325e-05,0.0,0 STARLINK-4637,1 53742U 22107AU  24208.82333880  .00002325  00000-0  16410-3 0  9991,2 53742  53.2178  36.5557 0001380  86.0937 274.0213 15.08847669104610,6917.857,95.437,540.677,538.767,0.0
53742.0,STARLINK-4637,PAYLOAD,2024-07-26 22:56:22,15.08847504,9.82e-05,53.2211,35.9624,69.5514,290.5584,0.00014567,2.032e-05,0.0,0 STARLINK-4637,1 53742U 22107AU  24208.95581865  .00002032  00000-0  14567-3 0  9999,2 53742  53.2211  35.9624 0000982  69.5514 290.5584 15.08847504105411,6917.857,95.437,540.402,539.043,0.0
53742.0,STARLINK-4637,PAYLOAD,2024-07-27 21:11:47,15.08830542,0.0001355,53.2218,31.7993,66.3713,293.7421,-5.03e-05,-1.088e-05,0.0,0 STARLINK-4637,1 53742U 22107AU  24209.88318935 -.00001088  00000-0 -50300-4 0  9996,2 53742  53.2218  31.7993 0001355  66.3713 293.7421 15.08830542105556,6917.909,95.438,540.712,538.837,0.0
53742.0,STARLINK-4637,PAYLOAD,2024-07-28 05:08:43,15.08838873,9.98e-05,53.2214,30.3107,83.9741,276.1365,6.1869e-08,-2.87e-06,0.0,0 STARLINK-4637,1 53742U 22107AU  24210.21438909 -.00000287  00000-0  61869-7 0  9993,2 53742  53.2214  30.3107 0000998  83.9741 276.1365 15.08838873104828,6917.884,95.438,540.439,539.058,0.0
53742.0,STARLINK-4637,PAYLOAD,2024-07-28 21:02:34,15.08843128,0.0001404,53.2188,27.3372,80.722,279.3931,5.6883e-05,6.18e-06,0.0,0 STARLINK-4637,1 53742U 22107AU  24210.87678880  .00000618  00000-0  56883-4 0  9993,2 53742  53.2188  27.3372 0001404  80.7220 279.3931 15.08843128105709,6917.871,95.437,540.707,538.765,0.0
53742.0,STARLINK-4637,PAYLOAD,2024-07-29 04:59:29,15.08855141,0.0001279,53.217,25.8529,94.123,265.9908,7.3424e-05,8.81e-06,0.0,0 STARLINK-4637,1 53742U 22107AU  24211.20797915  .00000881  00000-0  73424-4 0  9994,2 53742  53.2170  25.8529 0001279  94.1230 265.9908 15.08855141104978,6917.834,95.437,540.584,538.814,0.0
53742.0,STARLINK-4637,PAYLOAD,2024-07-29 11:21:02,15.08843338,0.000111,53.2159,24.6641,91.7753,268.3367,0.00019559,2.827e-05,0.0,0 STARLINK-4637,1 53742U 22107AU  24211.47294479  .00002827  00000-0  19559-3 0  9990,2 53742  53.2159  24.6641 0001110  91.7753 268.3367 15.08843338105011,6917.87,95.437,540.503,538.967,0.0
53742.0,STARLINK-4637,PAYLOAD,2024-07-29 19:17:58,15.08841645,0.0001264,53.2166,23.1752,90.8139,269.2998,0.00015521,2.183e-05,0.0,0 STARLINK-4637,1 53742U 22107AU  24211.80414775  .00002183  00000-0  15521-3 0  9990,2 53742  53.2166  23.1752 0001264  90.8139 269.2998 15.08841645105844,6917.875,95.437,540.615,538.866,0.0
53742.0,STARLINK-4637,PAYLOAD,2024-07-30 11:11:49,15.0884184,0.0001552,53.2169,20.2017,85.02,275.097,0.00013183,1.811e-05,0.0,0 STARLINK-4637,1 53742U 22107AU  24212.46654864  .00001811  00000-0  13183-3 0  9997,2 53742  53.2169  20.2017 0001552  85.0200 275.0970 15.08841840105161,6917.875,95.437,540.813,538.666,0.0
53742.0,STARLINK-4637,PAYLOAD,2024-07-31 04:41:03,15.08853076,0.0001796,53.2169,16.9307,85.2325,274.8872,0.00010697,1.415e-05,0.0,0 STARLINK-4637,1 53742U 22107AU  24213.19517992  .00001415  00000-0  10697-3 0  9995,2 53742  53.2169  16.9307 0001796  85.2325 274.8872 15.08853076105279,6917.84,95.437,540.948,538.463,0.0
53742.0,STARLINK-4637,PAYLOAD,2024-07-31 14:13:23,15.08831701,0.0001785,53.2177,15.1404,138.0761,222.0368,0.0001652,2.341e-05,0.0,0 STARLINK-4637,1 53742U 22107AU  24213.59262757  .00002341  00000-0  16520-3 0  9995,2 53742  53.2177  15.1404 0001785 138.0761 222.0368 15.08831701106116,6917.906,95.438,541.006,538.536,0.0
53742.0,STARLINK-4637,PAYLOAD,2024-07-31 20:34:56,15.0883687,0.000138,53.2195,13.9543,106.56,253.5544,-6.4759e-05,-1.318e-05,0.0,0 STARLINK-4637,1 53742U 22107AU  24213.85759290 -.00001318  00000-0 -64759-4 0  9990,2 53742  53.2195  13.9543 0001380 106.5600 253.5544 15.08836870105373,6917.89,95.438,540.71,538.8,0.0
53742.0,STARLINK-4637,PAYLOAD,2024-08-01 10:53:23,15.08841931,0.0001467,53.2174,11.2808,86.0251,274.0909,0.00011917,1.609e-05,0.0,0 STARLINK-4637,1 53742U 22107AU  24214.45374955  .00001609  00000-0  11917-3 0  9996,2 53742  53.2174  11.2808 0001467  86.0251 274.0909 15.08841931105462,6917.874,95.437,540.754,538.725,0.0
53742.0,STARLINK-4637,PAYLOAD,2024-08-01 20:25:40,15.08885141,0.0001889,53.2193,9.4941,121.5419,238.5758,-0.00070989,-0.00011582,0.0,0 STARLINK-4637,1 53742U 22107AU  24214.85115847 -.00011582  00000-0 -70989-3 0  9990,2 53742  53.2193   9.4941 0001889 121.5419 238.5758 15.08885141105524,6917.742,95.435,540.914,538.301,0.0
53742.0,STARLINK-4637,PAYLOAD,2024-08-02 13:54:58,15.08820405,0.0001555,53.22,6.2255,103.1597,256.9569,-7.889e-06,-4.13e-06,0.0,0 STARLINK-4637,1 53742U 22107AU  24215.57983994 -.00000413  00000-0 -78890-5 0  9998,2 53742  53.2200   6.2255 0001555 103.1597 256.9569 15.08820405105637,6917.94,95.439,540.881,538.73,0.0
53742.0,STARLINK-4637,PAYLOAD,2024-08-02 17:05:44,15.08824116,0.0001583,53.2188,5.6311,98.5502,261.567,4.9204e-05,4.95e-06,0.0,0 STARLINK-4637,1 53742U 22107AU  24215.71232229  .00000495  00000-0  49204-4 0  9996,2 53742  53.2188   5.6311 0001583  98.5502 261.5670 15.08824116106439,6917.929,95.439,540.889,538.699,0.0
53742.0,STARLINK-4637,PAYLOAD,2024-08-03 02:38:02,15.08838276,0.0001459,53.2188,3.8469,98.3431,261.7727,8.3322e-05,1.038e-05,0.0,0 STARLINK-4637,1 53742U 22107AU  24216.10975378  .00001038  00000-0  83322-4 0  9992,2 53742  53.2188   3.8469 0001459  98.3431 261.7727 15.08838276105711,6917.886,95.438,540.76,538.741,0.0
53742.0,STARLINK-4637,PAYLOAD,2024-08-03 13:45:44,15.0884198,0.0001519,53.2195,1.7665,97.139,262.9775,0.00019876,2.877e-05,0.0,0 STARLINK-4637,1 53742U 22107AU  24216.57343366  .00002877  00000-0  19876-3 0  9993,2 53742  53.2195   1.7665 0001519  97.1390 262.9775 15.08841980106568,6917.874,95.437,540.79,538.689,0.0
53742.0,STARLINK-4637,PAYLOAD,2024-08-03 16:56:31,15.08846862,0.0001627,53.2193,1.1722,99.8167,260.3008,0.00071298,0.00011079,0.0,0 STARLINK-4637,1 53742U 22107AU  24216.70591506  .00011079  00000-0  71298-3 0  9999,2 53742  53.2193   1.1722 0001627  99.8167 260.3008 15.08846862106582,6917.859,95.437,540.85,538.599,0.0
53742.0,STARLINK-4637,PAYLOAD,2024-08-04 02:28:49,15.08865635,0.000163,53.2193,359.3878,99.5922,260.5254,0.0010975,0.00017234,0.0,0 STARLINK-4637,1 53742U 22107AU  24217.10335024  .00017234  00000-0  10975-2 0  9998,2 53742  53.2193 359.3878 0001630  99.5922 260.5254 15.08865635105866,6917.802,95.436,540.795,538.539,0.0
53742.0,STARLINK-4637,PAYLOAD,2024-08-04 13:36:31,15.0884895,0.0001722,53.2192,357.3065,102.3026,257.8159,0.00040794,6.212e-05,0.0,0 STARLINK-4637,1 53742U 22107AU  24217.56703243  .00006212  00000-0  40794-3 0  9997,2 53742  53.2192 357.3065 0001722 102.3026 257.8159 15.08848950105933,6917.853,95.437,540.909,538.527,0.0
53742.0,STARLINK-4637,PAYLOAD,2024-08-04 18:22:41,15.08852574,0.000168,53.2188,356.4146,91.7761,268.3424,0.0019214,0.00030434,0.0,0 STARLINK-4637,1 53742U 22107AU  24217.76575299  .00030434  00000-0  19214-2 0  9992,2 53742  53.2188 356.4146 0001680  91.7761 268.3424 15.08852574106747,6917.842,95.437,540.869,538.545,0.0
53742.0,STARLINK-4637,PAYLOAD,2024-08-05 02:19:35,15.08911579,0.000171,53.218,354.9238,68.9804,291.1371,0.0038946,0.00062366,0.0,0 STARLINK-4637,1 53742U 22107AU  24218.09694209  .00062366  00000-0  38946-2 0  9994,2 53742  53.2180 354.9238 0001710  68.9804 291.1371 15.08911579106018,6917.662,95.433,540.71,538.344,0.0
53742.0,STARLINK-4637,PAYLOAD,2024-08-05 16:38:03,15.08851839,0.0001338,53.2183,352.2503,81.1339,278.9805,0.00071648,0.00011137,0.0,0 STARLINK-4637,1 53742U 22107AU  24218.69310098  .00011137  00000-0  71648-3 0  9998,2 53742  53.2183 352.2503 0001338  81.1339 278.9805 15.08851839106100,6917.844,95.437,540.635,538.784,0.0
53742.0,STARLINK-4637,PAYLOAD,2024-08-06 08:31:55,15.08824806,0.0001659,53.2179,349.2756,112.321,247.7958,-0.00095359,-0.00015426,0.0,0 STARLINK-4637,1 53742U 22107AU  24219.35550390 -.00015426  00000-0 -95359-3 0  9995,2 53742  53.2179 349.2756 0001659 112.3210 247.7958 15.08824806106200,6917.927,95.439,540.94,538.644,0.0
